{
  "norad_id": 61514,
  "name": "STARLINK-31837",
  "history": [
    {
      "epoch": "2026-04-14T19:34:02.288064Z",
      "apogee_km": 476.12032411090877,
      "perigee_km": 474.3521538152563,
      "latitude_deg": -3.7096731506628423e-06,
      "longitude_deg": -161.8694493402982,
      "height_km": 476.21075039805106,
      "semi_major_axis_km": 6853.373238963082,
      "eccentricity": 0.000129,
      "inclination_deg": 53.1627,
      "raan_deg": 334.6264,
      "arg_perigee_deg": 94.9426,
      "mean_anomaly_deg": 265.1722,
      "mean_motion_rev_day": 15.3019291
    },
    {
      "epoch": "2026-04-15T20:38:56.520960Z",
      "apogee_km": 476.7957240921787,
      "perigee_km": 473.7788467217433,
      "latitude_deg": -2.9599411694745138e-05,
      "longitude_deg": 176.02039286639513,
      "height_km": 475.35710323942,
      "semi_major_axis_km": 6853.424285406961,
      "eccentricity": 0.0002201,
      "inclination_deg": 53.1596,
      "raan_deg": 329.7723,
      "arg_perigee_deg": 56.7339,
      "mean_anomaly_deg": 303.3872,
      "mean_motion_rev_day": 15.30175814
    },
    {
      "epoch": "2026-04-16T01:21:04.571424Z",
      "apogee_km": 476.0892804064224,
      "perigee_km": 474.4070484839576,
      "latitude_deg": 2.532417574472732e-05,
      "longitude_deg": 104.38477659263324,
      "height_km": 476.22960415062914,
      "semi_major_axis_km": 6853.38516444519,
      "eccentricity": 0.00012273,
      "inclination_deg": 53.1601,
      "raan_deg": 328.8633,
      "arg_perigee_deg": 95.6834,
      "mean_anomaly_deg": 264.4307,
      "mean_motion_rev_day": 15.30188916
    },
    {
      "epoch": "2026-04-17T21:14:32.652960Z",
      "apogee_km": 475.90888165292927,
      "perigee_km": 474.44871418902403,
      "latitude_deg": 8.326523991713772e-07,
      "longitude_deg": 155.7178099411675,
      "height_km": 475.8213479743839,
      "semi_major_axis_km": 6853.315797920976,
      "eccentricity": 0.00010653,
      "inclination_deg": 53.1601,
      "raan_deg": 320.3659,
      "arg_perigee_deg": 69.4805,
      "mean_anomaly_deg": 290.631,
      "mean_motion_rev_day": 15.30212148
    },
    {
      "epoch": "2026-04-18T20:45:20.764224Z",
      "apogee_km": 475.87652596614953,
      "perigee_km": 474.5209361585448,
      "latitude_deg": 2.181622936738918e-05,
      "longitude_deg": 157.50180254491443,
      "height_km": 475.89302608913147,
      "semi_major_axis_km": 6853.335731062347,
      "eccentricity": 9.89e-05,
      "inclination_deg": 53.1593,
      "raan_deg": 315.816,
      "arg_perigee_deg": 72.4706,
      "mean_anomaly_deg": 287.6403,
      "mean_motion_rev_day": 15.30205472
    },
    {
      "epoch": "2026-04-19T20:16:08.662944Z",
      "apogee_km": 475.8524429005074,
      "perigee_km": 474.58868376582814,
      "latitude_deg": 5.360892306116676e-05,
      "longitude_deg": 159.28689003706793,
      "height_km": 476.03177580287263,
      "semi_major_axis_km": 6853.3575633331675,
      "eccentricity": 9.22e-05,
      "inclination_deg": 53.1598,
      "raan_deg": 311.2663,
      "arg_perigee_deg": 82.0573,
      "mean_anomaly_deg": 278.0533,
      "mean_motion_rev_day": 15.3019816
    }
  ]
}